[
    {
        "Altitude(m)": 707211.3759872573,
        "Argument of Periapsis(deg)": 0.0011390121186627068,
        "Eccentricity": 0.0,
        "Inclination(deg)": 45.0,
        "Latitude(deg)": 44.72465378078142,
        "Longitude(deg)": 165.05126611432692,
        "Mean Anomaly(deg)": 82.97152166474808,
        "RAAN(deg)": 184.9989248058542,
        "Satellite Name": "Constellation 1 819",
        "Satellite Number": 819,
        "Semi-Major Axis(m)": 7083131.272910544,
        "Time(s)": 19
    },
    {
        "Altitude(m)": 707213.0474271579,
        "Argument of Periapsis(deg)": 0.0011989601249081123,
        "Eccentricity": 0.0,
        "Inclination(deg)": 45.0,
        "Latitude(deg)": 44.732016750608636,
        "Longitude(deg)": 165.13179116337773,
        "Mean Anomaly(deg)": 83.03222280499804,
        "RAAN(deg)": 184.9988682166886,
        "Satellite Name": "Constellation 1 819",
        "Satellite Number": 819,
        "Semi-Major Axis(m)": 7083131.272910544,
        "Time(s)": 20
    },
    {
        "Altitude(m)": 707214.7047882185,
        "Argument of Periapsis(deg)": 0.001258908131153518,
        "Eccentricity": 0.0,
        "Inclination(deg)": 45.0,
        "Latitude(deg)": 44.73931700326285,
        "Longitude(deg)": 165.21233758529635,
        "Mean Anomaly(deg)": 83.09292394524788,
        "RAAN(deg)": 184.99881162752303,
        "Satellite Name": "Constellation 1 819",
        "Satellite Number": 819,
        "Semi-Major Axis(m)": 7083131.272910544,
        "Time(s)": 21
    },
    {
        "Altitude(m)": 707216.3480607539,
        "Argument of Periapsis(deg)": 0.0013188561373989236,
        "Eccentricity": 0.0,
        "Inclination(deg)": 45.0,
        "Latitude(deg)": 44.74655450727636,
        "Longitude(deg)": 165.29290503985837,
        "Mean Anomaly(deg)": 83.15362508549781,
        "RAAN(deg)": 184.99875503835747,
        "Satellite Name": "Constellation 1 819",
        "Satellite Number": 819,
        "Semi-Major Axis(m)": 7083131.272910544,
        "Time(s)": 22
    },
    {
        "Altitude(m)": 707217.9772351767,
        "Argument of Periapsis(deg)": 0.0013788041436443293,
        "Eccentricity": 0.0,
        "Inclination(deg)": 45.0,
        "Latitude(deg)": 44.75372923143148,
        "Longitude(deg)": 165.37349369076807,
        "Mean Anomaly(deg)": 83.21432622574767,
        "RAAN(deg)": 184.9986984491919,
        "Satellite Name": "Constellation 1 819",
        "Satellite Number": 819,
        "Semi-Major Axis(m)": 7083131.272910544,
        "Time(s)": 23
    },
    {
        "Altitude(m)": 707219.5923019818,
        "Argument of Periapsis(deg)": 0.001438752149889735,
        "Eccentricity": 0.0,
        "Inclination(deg)": 45.0,
        "Latitude(deg)": 44.76084114476279,
        "Longitude(deg)": 165.45410319707972,
        "Mean Anomaly(deg)": 83.27502736599762,
        "RAAN(deg)": 184.99864186002634,
        "Satellite Name": "Constellation 1 819",
        "Satellite Number": 819,
        "Semi-Major Axis(m)": 7083131.272910544,
        "Time(s)": 24
    },
    {
        "Altitude(m)": 707221.1932517372,
        "Argument of Periapsis(deg)": 0.0014987001561351404,
        "Eccentricity": 0.0,
        "Inclination(deg)": 45.0,
        "Latitude(deg)": 44.76789021655683,
        "Longitude(deg)": 165.53473338558751,
        "Mean Anomaly(deg)": 83.33572850624749,
        "RAAN(deg)": 184.9985852708608,
        "Satellite Name": "Constellation 1 819",
        "Satellite Number": 819,
        "Semi-Major Axis(m)": 7083131.272910544,
        "Time(s)": 25
    },
    {
        "Altitude(m)": 707222.7800751043,
        "Argument of Periapsis(deg)": 0.001558648162380546,
        "Eccentricity": 0.0,
        "Inclination(deg)": 45.0,
        "Latitude(deg)": 44.77487641635274,
        "Longitude(deg)": 165.61538408273168,
        "Mean Anomaly(deg)": 83.39642964649737,
        "RAAN(deg)": 184.99852868169518,
        "Satellite Name": "Constellation 1 819",
        "Satellite Number": 819,
        "Semi-Major Axis(m)": 7083131.272910544,
        "Time(s)": 26
    },
    {
        "Altitude(m)": 707224.3527628158,
        "Argument of Periapsis(deg)": 0.0016185961686259519,
        "Eccentricity": 0.0,
        "Inclination(deg)": 45.0,
        "Latitude(deg)": 44.781799713943144,
        "Longitude(deg)": 165.69605511460085,
        "Mean Anomaly(deg)": 83.45713078674724,
        "RAAN(deg)": 184.99847209252962,
        "Satellite Name": "Constellation 1 819",
        "Satellite Number": 819,
        "Semi-Major Axis(m)": 7083131.272910544,
        "Time(s)": 27
    },
    {
        "Altitude(m)": 707225.9113057038,
        "Argument of Periapsis(deg)": 0.0016785441748713573,
        "Eccentricity": 0.0,
        "Inclination(deg)": 45.0,
        "Latitude(deg)": 44.78866007937451,
        "Longitude(deg)": 165.77674630693525,
        "Mean Anomaly(deg)": 83.5178319269972,
        "RAAN(deg)": 184.99841550336404,
        "Satellite Name": "Constellation 1 819",
        "Satellite Number": 819,
        "Semi-Major Axis(m)": 7083131.272910544,
        "Time(s)": 28
    },
    {
        "Altitude(m)": 707227.4556946727,
        "Argument of Periapsis(deg)": 0.001738492181116763,
        "Eccentricity": 0.0,
        "Inclination(deg)": 45.0,
        "Latitude(deg)": 44.79545748294794,
        "Longitude(deg)": 165.8574574851284,
        "Mean Anomaly(deg)": 83.5785330672471,
        "RAAN(deg)": 184.9983589141985,
        "Satellite Name": "Constellation 1 819",
        "Satellite Number": 819,
        "Semi-Major Axis(m)": 7083131.272910544,
        "Time(s)": 29
    },
    {
        "Altitude(m)": 707228.9859207135,
        "Argument of Periapsis(deg)": 0.0017984401873621684,
        "Eccentricity": 0.0,
        "Inclination(deg)": 45.0,
        "Latitude(deg)": 44.802191895220005,
        "Longitude(deg)": 165.93818830613338,
        "Mean Anomaly(deg)": 83.63923420749698,
        "RAAN(deg)": 184.9983023250329,
        "Satellite Name": "Constellation 1 819",
        "Satellite Number": 819,
        "Semi-Major Axis(m)": 7083131.272910544,
        "Time(s)": 30
    },
    {
        "Altitude(m)": 707230.5019748962,
        "Argument of Periapsis(deg)": 0.0018583881936075745,
        "Eccentricity": 0.0,
        "Inclination(deg)": 45.0,
        "Latitude(deg)": 44.8088632870021,
        "Longitude(deg)": 166.01893893085418,
        "Mean Anomaly(deg)": 83.69993534774689,
        "RAAN(deg)": 184.99824573586736,
        "Satellite Name": "Constellation 1 819",
        "Satellite Number": 819,
        "Semi-Major Axis(m)": 7083131.272910544,
        "Time(s)": 31
    },
    {
        "Altitude(m)": 707232.0038483825,
        "Argument of Periapsis(deg)": 0.0019183361998529795,
        "Eccentricity": 0.0,
        "Inclination(deg)": 45.0,
        "Latitude(deg)": 44.8154716293629,
        "Longitude(deg)": 166.09970901556528,
        "Mean Anomaly(deg)": 83.76063648799679,
        "RAAN(deg)": 184.9981891467018,
        "Satellite Name": "Constellation 1 819",
        "Satellite Number": 819,
        "Semi-Major Axis(m)": 7083131.272910544,
        "Time(s)": 32
    },
    {
        "Altitude(m)": 707233.4915324103,
        "Argument of Periapsis(deg)": 0.0019782842060983856,
        "Eccentricity": 0.0,
        "Inclination(deg)": 45.0,
        "Latitude(deg)": 44.82201689362768,
        "Longitude(deg)": 166.18049838430278,
        "Mean Anomaly(deg)": 83.82133762824667,
        "RAAN(deg)": 184.9981325575362,
        "Satellite Name": "Constellation 1 819",
        "Satellite Number": 819,
        "Semi-Major Axis(m)": 7083131.272910544,
        "Time(s)": 33
    },
    {
        "Altitude(m)": 707234.9650183023,
        "Argument of Periapsis(deg)": 0.0020382322123437906,
        "Eccentricity": 0.0,
        "Inclination(deg)": 45.0,
        "Latitude(deg)": 44.82849905137934,
        "Longitude(deg)": 166.26130686077045,
        "Mean Anomaly(deg)": 83.88203876849653,
        "RAAN(deg)": 184.99807596837064,
        "Satellite Name": "Constellation 1 819",
        "Satellite Number": 819,
        "Semi-Major Axis(m)": 7083131.272910544,
        "Time(s)": 34
    },
    {
        "Altitude(m)": 707236.4242974665,
        "Argument of Periapsis(deg)": 0.002098180218589197,
        "Eccentricity": 0.0,
        "Inclination(deg)": 45.0,
        "Latitude(deg)": 44.83491807445877,
        "Longitude(deg)": 166.3421342683422,
        "Mean Anomaly(deg)": 83.94273990874652,
        "RAAN(deg)": 184.99801937920506,
        "Satellite Name": "Constellation 1 819",
        "Satellite Number": 819,
        "Semi-Major Axis(m)": 7083131.272910544,
        "Time(s)": 35
    },
    {
        "Altitude(m)": 707237.8693613946,
        "Argument of Periapsis(deg)": 0.002158128224834602,
        "Eccentricity": 0.0,
        "Inclination(deg)": 45.0,
        "Latitude(deg)": 44.841273934965564,
        "Longitude(deg)": 166.42298043006474,
        "Mean Anomaly(deg)": 84.00344104899638,
        "RAAN(deg)": 184.9979627900395,
        "Satellite Name": "Constellation 1 819",
        "Satellite Number": 819,
        "Semi-Major Axis(m)": 7083131.272910544,
        "Time(s)": 36
    },
    {
        "Altitude(m)": 707239.3002016577,
        "Argument of Periapsis(deg)": 0.002218076231080008,
        "Eccentricity": 0.0,
        "Inclination(deg)": 45.0,
        "Latitude(deg)": 44.84756660525891,
        "Longitude(deg)": 166.50384500056364,
        "Mean Anomaly(deg)": 84.06414218924627,
        "RAAN(deg)": 184.9979062008739,
        "Satellite Name": "Constellation 1 819",
        "Satellite Number": 819,
        "Semi-Major Axis(m)": 7083131.272910544,
        "Time(s)": 37
    }
]